{
  "norad_id": 62117,
  "name": "STARLINK-32521",
  "history": [
    {
      "epoch": "2026-03-28T20:57:15.623136Z",
      "apogee_km": 483.8032696694636,
      "perigee_km": 482.1965286304194,
      "latitude_deg": 5.2195291791361334e-05,
      "longitude_deg": -116.39904081417707,
      "height_km": 482.64618589416807,
      "semi_major_axis_km": 6861.136899149941,
      "eccentricity": 0.00011709,
      "inclination_deg": 43.0034,
      "raan_deg": 24.2033,
      "arg_perigee_deg": 279.3557,
      "mean_anomaly_deg": 80.7163,
      "mean_motion_rev_day": 15.2759643
    },
    {
      "epoch": "2026-03-29T00:05:34.265184Z",
      "apogee_km": 483.8152707891486,
      "perigee_km": 482.1644836624873,
      "latitude_deg": 3.4965828653990784e-05,
      "longitude_deg": -164.34332852719757,
      "height_km": 482.57574525521704,
      "semi_major_axis_km": 6861.126877225817,
      "eccentricity": 0.0001203,
      "inclination_deg": 43.0025,
      "raan_deg": 23.4656,
      "arg_perigee_deg": 283.3755,
      "mean_anomaly_deg": 76.6963,
      "mean_motion_rev_day": 15.27599777
    },
    {
      "epoch": "2026-03-30T04:20:22.658784Z",
      "apogee_km": 484.0204752599748,
      "perigee_km": 481.9547278649361,
      "latitude_deg": -4.600631081676059e-05,
      "longitude_deg": 124.14689197506668,
      "height_km": 483.101907890293,
      "semi_major_axis_km": 6861.124601562456,
      "eccentricity": 0.00015054,
      "inclination_deg": 43.0033,
      "raan_deg": 16.8176,
      "arg_perigee_deg": 250.9418,
      "mean_anomaly_deg": 109.127,
      "mean_motion_rev_day": 15.27600537
    },
    {
      "epoch": "2026-03-30T12:11:10.197024Z",
      "apogee_km": 483.2790542945595,
      "perigee_km": 482.7913621739981,
      "latitude_deg": 3.718472832157033e-05,
      "longitude_deg": 4.28045918141708,
      "height_km": 482.770768569357,
      "semi_major_axis_km": 6861.1722082342785,
      "eccentricity": 3.554e-05,
      "inclination_deg": 43.002,
      "raan_deg": 14.9714,
      "arg_perigee_deg": 279.5415,
      "mean_anomaly_deg": 80.5397,
      "mean_motion_rev_day": 15.27584638
    },
    {
      "epoch": "2026-03-30T20:01:57.266976Z",
      "apogee_km": 483.1554734053652,
      "perigee_km": 482.87732224661613,
      "latitude_deg": -2.4001430061058758e-06,
      "longitude_deg": -115.58464799220086,
      "height_km": 482.65297046648527,
      "semi_major_axis_km": 6861.15339782599,
      "eccentricity": 2.027e-05,
      "inclination_deg": 43.0018,
      "raan_deg": 13.1247,
      "arg_perigee_deg": 1.0768,
      "mean_anomaly_deg": 359.0084,
      "mean_motion_rev_day": 15.2759092
    },
    {
      "epoch": "2026-03-31T11:43:31.628928Z",
      "apogee_km": 483.24985916467085,
      "perigee_km": 482.855615202373,
      "latitude_deg": 4.061977345444462e-07,
      "longitude_deg": 4.684597465456008,
      "height_km": 482.71314566894654,
      "semi_major_axis_km": 6861.189737183522,
      "eccentricity": 2.873e-05,
      "inclination_deg": 43.0045,
      "raan_deg": 9.4316,
      "arg_perigee_deg": 305.9589,
      "mean_anomaly_deg": 54.1236,
      "mean_motion_rev_day": 15.27578784
    },
    {
      "epoch": "2026-04-01T11:15:52.742880Z",
      "apogee_km": 484.06829103894415,
      "perigee_km": 482.0154263244267,
      "latitude_deg": -1.4396806598509497e-05,
      "longitude_deg": 5.091387652774908,
      "height_km": 482.6610886394789,
      "semi_major_axis_km": 6861.178858681685,
      "eccentricity": 0.0001496,
      "inclination_deg": 43.0022,
      "raan_deg": 3.8931,
      "arg_perigee_deg": 278.8438,
      "mean_anomaly_deg": 81.2244,
      "mean_motion_rev_day": 15.27582417
    },
    {
      "epoch": "2026-04-02T10:48:13.264128Z",
      "apogee_km": 483.53577493745433,
      "perigee_km": 482.3671943467489,
      "latitude_deg": 4.889523423819117e-06,
      "longitude_deg": 5.5034902266849235,
      "height_km": 482.4547735318154,
      "semi_major_axis_km": 6861.088484642101,
      "eccentricity": 8.516e-05,
      "inclination_deg": 42.993,
      "raan_deg": 358.3574,
      "arg_perigee_deg": 62.4149,
      "mean_anomaly_deg": 297.6789,
      "mean_motion_rev_day": 15.27612599
    }
  ]
}